start=new Date('2021-11-23T00:00:00.000Z').valueOf();
sats=[{"FILE":"3221516","OBJECT_TYPE":"PAYLOAD","TLE_LINE1":"1 45213U 20012AM  21326.73581386 -.00003902  00000-0 -24312-3 0  9996","REV_AT_EPOCH":"9785","PERIOD":"95.591","RCS_SIZE":"LARGE","OBJECT_NAME":"STARLINK-1232","ARG_OF_PERICENTER":"61.4790","SEMIMAJOR_AXIS":"6925.313","RA_OF_ASC_NODE":"225.4509","MEAN_ELEMENT_THEORY":"SGP4","PERIAPSIS":"546.071","ELEMENT_SET_NO":"999","SITE":"AFETR","NORAD_CAT_ID":"45213","CLASSIFICATION_TYPE":"U","MEAN_MOTION":"15.06411575","MEAN_MOTION_DDOT":"0.0000000000000","APOAPSIS":"548.285","INCLINATION":"53.0551","EPOCH":"2021-11-22T17:39:34.317504","LAUNCH_DATE":"2020-02-17","BSTAR":"-0.00024312000000","DECAY_DATE":null,"TLE_LINE2":"2 45213  53.0551 225.4509 0001599  61.4790 298.6359 15.06411575 97850","GP_ID":"190271212","MEAN_MOTION_DOT":"-0.00003902","MEAN_ANOMALY":"298.6359","REF_FRAME":"TEME","ECCENTRICITY":"0.00015990","CENTER_NAME":"EARTH","TIME_SYSTEM":"UTC","OBJECT_ID":"2020-012AM","EPHEMERIS_TYPE":"0","COUNTRY_CODE":"US"},{"EPHEMERIS_TYPE":"0","COUNTRY_CODE":"US","OBJECT_ID":"2020-012AN","TIME_SYSTEM":"UTC","CENTER_NAME":"EARTH","ECCENTRICITY":"0.00015810","REF_FRAME":"TEME","MEAN_ANOMALY":"291.3798","GP_ID":"190262083","MEAN_MOTION_DOT":"-0.00000451","TLE_LINE2":"2 45214  53.0522 226.7561 0001581  68.7359 291.3798 15.06398688 98748","BSTAR":"-0.00001139400000","LAUNCH_DATE":"2020-02-17","DECAY_DATE":null,"EPOCH":"2021-11-22T10:35:00.466368","INCLINATION":"53.0522","MEAN_MOTION_DDOT":"0.0000000000000","APOAPSIS":"548.312","MEAN_MOTION":"15.06398688","CLASSIFICATION_TYPE":"U","NORAD_CAT_ID":"45214","SITE":"AFETR","MEAN_ELEMENT_THEORY":"SGP4","PERIAPSIS":"546.123","ELEMENT_SET_NO":"999","SEMIMAJOR_AXIS":"6925.353","RA_OF_ASC_NODE":"226.7561","OBJECT_NAME":"STARLINK-1233","ARG_OF_PERICENTER":"68.7359","RCS_SIZE":"LARGE","PERIOD":"95.592","REV_AT_EPOCH":"9874","TLE_LINE1":"1 45214U 20012AN  21326.44097762 -.00000451  00000-0 -11394-4 0  9998","OBJECT_TYPE":"PAYLOAD","FILE":"3221278"},{"TLE_LINE1":"1 45215U 20012AP  21326.70268378  .00001333  00000-0  10836-3 0  9998","REV_AT_EPOCH":"9784","PERIOD":"95.592","FILE":"3221517","OBJECT_TYPE":"PAYLOAD","RCS_SIZE":"LARGE","OBJECT_NAME":"STARLINK-1245","ARG_OF_PERICENTER":"70.8278","SEMIMAJOR_AXIS":"6925.331","RA_OF_ASC_NODE":"225.5829","NORAD_CAT_ID":"45215","CLASSIFICATION_TYPE":"U","ELEMENT_SET_NO":"999","PERIAPSIS":"545.610","MEAN_ELEMENT_THEORY":"SGP4","SITE":"AFETR","INCLINATION":"53.0543","EPOCH":"2021-11-22T16:51:51.878592","MEAN_MOTION":"15.06405637","APOAPSIS":"548.782","MEAN_MOTION_DDOT":"0.0000000000000","DECAY_DATE":null,"LAUNCH_DATE":"2020-02-17","BSTAR":"0.00010836000000","TLE_LINE2":"2 45215  53.0543 225.5829 0002290  70.8278 289.2959 15.06405637 97846","ECCENTRICITY":"0.00022900","GP_ID":"190270974","MEAN_MOTION_DOT":"0.00001333","MEAN_ANOMALY":"289.2959","REF_FRAME":"TEME","OBJECT_ID":"2020-012AP","COUNTRY_CODE":"US","EPHEMERIS_TYPE":"0","CENTER_NAME":"EARTH","TIME_SYSTEM":"UTC"},{"MEAN_MOTION":"16.10044569","MEAN_MOTION_DDOT":"0.0006198300000","APOAPSIS":"251.185","INCLINATION":"53.0478","EPOCH":"2021-11-22T21:21:36.881280","BSTAR":"0.00105410000000","LAUNCH_DATE":"2020-02-17","DECAY_DATE":null,"TLE_LINE2":"2 45216  53.0478 187.8770 0006735 252.7161 107.3230 16.10044569 98380","MEAN_MOTION_DOT":"0.01017092","GP_ID":"190271834","MEAN_ANOMALY":"107.3230","REF_FRAME":"TEME","ECCENTRICITY":"0.00067350","CENTER_NAME":"EARTH","TIME_SYSTEM":"UTC","OBJECT_ID":"2020-012AQ","EPHEMERIS_TYPE":"0","COUNTRY_CODE":"US","FILE":"3221562","OBJECT_TYPE":"PAYLOAD","REV_AT_EPOCH":"9838","TLE_LINE1":"1 45216U 20012AQ  21326.89001020  .01017092  61983-3  10541-2 0  9990","PERIOD":"89.439","RCS_SIZE":"LARGE","ARG_OF_PERICENTER":"252.7161","OBJECT_NAME":"STARLINK-1254","SEMIMAJOR_AXIS":"6624.858","RA_OF_ASC_NODE":"187.8770","MEAN_ELEMENT_THEORY":"SGP4","PERIAPSIS":"242.261","ELEMENT_SET_NO":"999","SITE":"AFETR","NORAD_CAT_ID":"45216","CLASSIFICATION_TYPE":"U"},{"MEAN_ANOMALY":"284.8701","REF_FRAME":"TEME","GP_ID":"190263328","MEAN_MOTION_DOT":"0.00001541","ECCENTRICITY":"0.00018820","TIME_SYSTEM":"UTC","CENTER_NAME":"EARTH","EPHEMERIS_TYPE":"0","COUNTRY_CODE":"US","OBJECT_ID":"2020-012AR","MEAN_MOTION_DDOT":"0.0000000000000","APOAPSIS":"548.497","MEAN_MOTION":"15.06406612","EPOCH":"2021-11-22T03:30:23.251680","INCLINATION":"53.0546","TLE_LINE2":"2 45217  53.0546 228.0863 0001882  75.2497 284.8701 15.06406612 98701","BSTAR":"0.00012231000000","LAUNCH_DATE":"2020-02-17","DECAY_DATE":null,"RA_OF_ASC_NODE":"228.0863","SEMIMAJOR_AXIS":"6925.328","SITE":"AFETR","MEAN_ELEMENT_THEORY":"SGP4","PERIAPSIS":"545.890","ELEMENT_SET_NO":"999","CLASSIFICATION_TYPE":"U","NORAD_CAT_ID":"45217","OBJECT_TYPE":"PAYLOAD","FILE":"3221278","PERIOD":"95.592","REV_AT_EPOCH":"9870","TLE_LINE1":"1 45217U 20012AR  21326.14610245  .00001541  00000-0  12231-3 0  9994","OBJECT_NAME":"STARLINK-1271","ARG_OF_PERICENTER":"75.2497","RCS_SIZE":"LARGE"},{"TIME_SYSTEM":"UTC","CENTER_NAME":"EARTH","EPHEMERIS_TYPE":"0","COUNTRY_CODE":"US","OBJECT_ID":"2020-012AT","REF_FRAME":"TEME","MEAN_ANOMALY":"285.5972","MEAN_MOTION_DOT":"0.00003007","GP_ID":"190270479","ECCENTRICITY":"0.00019260","TLE_LINE2":"2 45219  53.0533 206.9025 0001926  74.5230 285.5972 15.06408317 98072","BSTAR":"0.00022065000000","LAUNCH_DATE":"2020-02-17","DECAY_DATE":null,"MEAN_MOTION_DDOT":"0.0000000000000","APOAPSIS":"548.522","MEAN_MOTION":"15.06408317","EPOCH":"2021-11-22T09:49:53.885280","INCLINATION":"53.0533","SITE":"AFETR","MEAN_ELEMENT_THEORY":"SGP4","ELEMENT_SET_NO":"999","PERIAPSIS":"545.854","CLASSIFICATION_TYPE":"U","NORAD_CAT_ID":"45219","SEMIMAJOR_AXIS":"6925.323","RA_OF_ASC_NODE":"206.9025","OBJECT_NAME":"STARLINK-1187","ARG_OF_PERICENTER":"74.5230","RCS_SIZE":"LARGE","OBJECT_TYPE":"PAYLOAD","FILE":"3221501","PERIOD":"95.592","TLE_LINE1":"1 45219U 20012AT  21326.40965145  .00003007  00000-0  22065-3 0  9992","REV_AT_EPOCH":"9807"},{"APOAPSIS":"304.920","MEAN_MOTION_DDOT":"0.0000000000000","MEAN_MOTION":"15.89482007","EPOCH":"2021-11-21T21:49:38.996832","INCLINATION":"53.0489","TLE_LINE2":"2 45220  53.0489 166.4740 0001772 133.0162 227.1012 15.89482007 98595","DECAY_DATE":null,"LAUNCH_DATE":"2020-02-17","BSTAR":"-0.00123670000000","MEAN_ANOMALY":"227.1012","REF_FRAME":"TEME","GP_ID":"190237294","MEAN_MOTION_DOT":"-0.00356399","ECCENTRICITY":"0.00017720","TIME_SYSTEM":"UTC","CENTER_NAME":"EARTH","COUNTRY_CODE":"US","EPHEMERIS_TYPE":"0","OBJECT_ID":"2020-012AU","OBJECT_TYPE":"PAYLOAD","FILE":"3221010","PERIOD":"90.596","TLE_LINE1":"1 45220U 20012AU  21325.90947913 -.00356399  00000-0 -12367-2 0  9991","REV_AT_EPOCH":"9859","OBJECT_NAME":"STARLINK-1188","ARG_OF_PERICENTER":"133.0162","RCS_SIZE":"LARGE","SEMIMAJOR_AXIS":"6681.871","RA_OF_ASC_NODE":"166.4740","SITE":"AFETR","ELEMENT_SET_NO":"999","PERIAPSIS":"302.552","MEAN_ELEMENT_THEORY":"SGP4","CLASSIFICATION_TYPE":"U","NORAD_CAT_ID":"45220"},{"CLASSIFICATION_TYPE":"U","NORAD_CAT_ID":"45221","SITE":"AFETR","MEAN_ELEMENT_THEORY":"SGP4","PERIAPSIS":"545.958","ELEMENT_SET_NO":"999","SEMIMAJOR_AXIS":"6925.340","RA_OF_ASC_NODE":"206.8889","ARG_OF_PERICENTER":"76.8573","OBJECT_NAME":"STARLINK-1189","RCS_SIZE":"LARGE","PERIOD":"95.592","REV_AT_EPOCH":"9902","TLE_LINE1":"1 45221U 20012AV  21326.41334133  .00001415  00000-0  11386-3 0  9998","OBJECT_TYPE":"PAYLOAD","FILE":"3221278","EPHEMERIS_TYPE":"0","COUNTRY_CODE":"US","OBJECT_ID":"2020-012AV","TIME_SYSTEM":"UTC","CENTER_NAME":"EARTH","ECCENTRICITY":"0.00018000","REF_FRAME":"TEME","MEAN_ANOMALY":"283.2617","MEAN_MOTION_DOT":"0.00001415","GP_ID":"190262585","TLE_LINE2":"2 45221  53.0546 206.8889 0001800  76.8573 283.2617 15.06402910 99022","LAUNCH_DATE":"2020-02-17","BSTAR":"0.00011386000000","DECAY_DATE":null,"EPOCH":"2021-11-22T09:55:12.690912","INCLINATION":"53.0546","MEAN_MOTION_DDOT":"0.0000000000000","APOAPSIS":"548.451","MEAN_MOTION":"15.06402910"},{"SEMIMAJOR_AXIS":"6925.323","RA_OF_ASC_NODE":"208.3511","CLASSIFICATION_TYPE":"U","NORAD_CAT_ID":"45222","SITE":"AFETR","PERIAPSIS":"545.809","ELEMENT_SET_NO":"999","MEAN_ELEMENT_THEORY":"SGP4","PERIOD":"95.592","TLE_LINE1":"1 45222U 20012AW  21326.08897105  .00002196  00000-0  16627-3 0  9995","REV_AT_EPOCH":"9803","OBJECT_TYPE":"PAYLOAD","FILE":"3221508","OBJECT_NAME":"STARLINK-1191","ARG_OF_PERICENTER":"71.4148","RCS_SIZE":"LARGE","ECCENTRICITY":"0.00019920","MEAN_ANOMALY":"288.7057","REF_FRAME":"TEME","MEAN_MOTION_DOT":"0.00002196","GP_ID":"190270531","COUNTRY_CODE":"US","EPHEMERIS_TYPE":"0","OBJECT_ID":"2020-012AW","TIME_SYSTEM":"UTC","CENTER_NAME":"EARTH","EPOCH":"2021-11-22T02:08:07.098720","INCLINATION":"53.0550","APOAPSIS":"548.568","MEAN_MOTION_DDOT":"0.0000000000000","MEAN_MOTION":"15.06408325","TLE_LINE2":"2 45222  53.0550 208.3511 0001992  71.4148 288.7057 15.06408325 98032","DECAY_DATE":null,"BSTAR":"0.00016627000000","LAUNCH_DATE":"2020-02-17"},{"RCS_SIZE":"LARGE","OBJECT_NAME":"STARLINK-1212","ARG_OF_PERICENTER":"72.1523","TLE_LINE1":"1 45223U 20012AX  21326.11109842 -.00000515  00000-0 -15698-4 0  9997","REV_AT_EPOCH":"9898","PERIOD":"95.593","FILE":"3221278","OBJECT_TYPE":"PAYLOAD","NORAD_CAT_ID":"45223","CLASSIFICATION_TYPE":"U","ELEMENT_SET_NO":"999","PERIAPSIS":"545.903","MEAN_ELEMENT_THEORY":"SGP4","SITE":"AFETR","SEMIMAJOR_AXIS":"6925.373","RA_OF_ASC_NODE":"208.2534","DECAY_DATE":null,"LAUNCH_DATE":"2020-02-17","BSTAR":"-0.00001569800000","TLE_LINE2":"2 45223  53.0545 208.2534 0001928  72.1523 287.9676 15.06392025 98986","INCLINATION":"53.0545","EPOCH":"2021-11-22T02:39:58.903488","MEAN_MOTION":"15.06392025","APOAPSIS":"548.573","MEAN_MOTION_DDOT":"0.0000000000000","OBJECT_ID":"2020-012AX","COUNTRY_CODE":"US","EPHEMERIS_TYPE":"0","CENTER_NAME":"EARTH","TIME_SYSTEM":"UTC","ECCENTRICITY":"0.00019280","GP_ID":"190262084","MEAN_MOTION_DOT":"-0.00000515","REF_FRAME":"TEME","MEAN_ANOMALY":"287.9676"}];
